{"type": "FeatureCollection", "features": [ {"type": "Feature", "properties": {"norad_id": 31807, "name": "FENGYUN 1C DEB", "group": "fengyun-1c-debris", "lat": -75.2342842909226, "lon": 145.7496114138407, "alt_km": 730.5182458058462, "timestamp": "2025-12-04T03:47:54.827219+00:00", "meta": {"OBJECT_NAME": "FENGYUN 1C DEB", "OBJECT_ID": "1999-025CGV", "EPOCH": "2025-11-30T02:34:40.844352", "MEAN_MOTION": 14.51863719, "ECCENTRICITY": 0.01055298, "INCLINATION": 99.076, "RA_OF_ASC_NODE": 104.0405, "ARG_OF_PERICENTER": 200.3476, "MEAN_ANOMALY": 159.3497, "EPHEMERIS_TYPE": 0, "CLASSIFICATION_TYPE": "U", "NORAD_CAT_ID": 31807, "ELEMENT_SET_NO": 999, "REV_AT_EPOCH": 65122, "BSTAR": 0.0012552682, "MEAN_MOTION_DOT": 5.383e-05, "MEAN_MOTION_DDOT": 0}, "tle": {"line1": "1 31807U 99025CGV 25334.10741718  .00005383  00000+0  12553-2 0  9996", "line2": "2 31807  99.0760 104.0405 0105529 200.3476 159.3497 14.51863719651229"}}, "geometry": {"type": "Point", "coordinates": [145.7496114138407, -75.2342842909226]}}, {"type": "Feature", "properties": {"norad_id": 31808, "name": "FENGYUN 1C DEB", "group": "fengyun-1c-debris", "lat": -5.806521086577165, "lon": -16.699435072892378, "alt_km": 682.5549589270368, "timestamp": "2025-12-04T03:47:54.827229+00:00", "meta": {"OBJECT_NAME": "FENGYUN 1C DEB", "OBJECT_ID": "1999-025CGW", "EPOCH": "2025-12-03T07:09:51.542208", "MEAN_MOTION": 14.56458132, "ECCENTRICITY": 0.0037987, "INCLINATION": 99.2042, "RA_OF_ASC_NODE": 163.2972, "ARG_OF_PERICENTER": 170.223, "MEAN_ANOMALY": 189.9712, "EPHEMERIS_TYPE": 0, "CLASSIFICATION_TYPE": "U", "NORAD_CAT_ID": 31808, "ELEMENT_SET_NO": 999, "REV_AT_EPOCH": 57465, "BSTAR": 0.0070427, "MEAN_MOTION_DOT": 0.00031692, "MEAN_MOTION_DDOT": 0}, "tle": {"line1": "1 31808U 99025CGW 25337.29851322  .00031692  00000+0  70427-2 0  9999", "line2": "2 31808  99.2042 163.2972 0037987 170.2230 189.9712 14.56458132574650"}}, "geometry": {"type": "Point", "coordinates": [-16.699435072892378, -5.806521086577165]}}, {"type": "Feature", "properties": {"norad_id": 31810, "name": "FENGYUN 1C DEB", "group": "fengyun-1c-debris", "lat": 2.126791840211268, "lon": -6.555440720149862, "alt_km": 888.612308934531, "timestamp": "2025-12-04T03:47:54.827239+00:00", "meta": {"OBJECT_NAME": "FENGYUN 1C DEB", "OBJECT_ID": "1999-025CGY", "EPOCH": "2025-12-02T18:34:02.794944", "MEAN_MOTION": 14.45755419, "ECCENTRICITY": 0.02141225, "INCLINATION": 98.2699, "RA_OF_ASC_NODE": 352.4032, "ARG_OF_PERICENTER": 170.6735, "MEAN_ANOMALY": 189.8534, "EPHEMERIS_TYPE": 0, "CLASSIFICATION_TYPE": "U", "NORAD_CAT_ID": 31810, "ELEMENT_SET_NO": 999, "REV_AT_EPOCH": 64270, "BSTAR": 0.00070820977, "MEAN_MOTION_DOT": 3.284e-05, "MEAN_MOTION_DDOT": 0}, "tle": {"line1": "1 31810U 99025CGY 25336.77364346  .00003284  00000+0  70821-3 0  9994", "line2": "2 31810  98.2699 352.4032 0214122 170.6735 189.8534 14.45755419642700"}}, "geometry": {"type": "Point", "coordinates": [-6.555440720149862, 2.126791840211268]}}, {"type": "Feature", "properties": {"norad_id": 31813, "name": "FENGYUN 1C DEB", "group": "fengyun-1c-debris", "lat": 16.81972164364368, "lon": -120.44554550912419, "alt_km": 820.160825934212, "timestamp": "2025-12-04T03:47:54.827249+00:00", "meta": {"OBJECT_NAME": "FENGYUN 1C DEB", "OBJECT_ID": "1999-025CHB", "EPOCH": "2025-12-03T00:32:58.175520", "MEAN_MOTION": 14.49726248, "ECCENTRICITY": 0.01366901, "INCLINATION": 99.4283, "RA_OF_ASC_NODE": 55.4063, "ARG_OF_PERICENTER": 2.4724, "MEAN_ANOMALY": 357.7113, "EPHEMERIS_TYPE": 0, "CLASSIFICATION_TYPE": "U", "NORAD_CAT_ID": 31813, "ELEMENT_SET_NO": 999, "REV_AT_EPOCH": 97115, "BSTAR": 0.00051301891, "MEAN_MOTION_DOT": 2.164e-05, "MEAN_MOTION_DDOT": 0}, "tle": {"line1": "1 31813U 99025CHB 25337.02289555  .00002164  00000+0  51302-3 0  9993", "line2": "2 31813  99.4283  55.4063 0136690   2.4724 357.7113 14.49726248971157"}}, "geometry": {"type": "Point", "coordinates": [-120.44554550912419, 16.81972164364368]}}, {"type": "Feature", "properties": {"norad_id": 31814, "name": "FENGYUN 1C DEB", "group": "fengyun-1c-debris", "lat": 23.820942182920668, "lon": 23.867040859693635, "alt_km": 1152.0362995062796, "timestamp": "2025-12-04T03:47:54.827259+00:00", "meta": {"OBJECT_NAME": "FENGYUN 1C DEB", "OBJECT_ID": "1999-025CHC", "EPOCH": "2025-11-24T20:29:55.792608", "MEAN_MOTION": 13.66443116, "ECCENTRICITY": 0.0229144, "INCLINATION": 99.5736, "RA_OF_ASC_NODE": 18.9365, "ARG_OF_PERICENTER": 261.41, "MEAN_ANOMALY": 96.1022, "EPHEMERIS_TYPE": 0, "CLASSIFICATION_TYPE": "U", "NORAD_CAT_ID": 31814, "ELEMENT_SET_NO": 999, "REV_AT_EPOCH": 61555, "BSTAR": 0.00071428, "MEAN_MOTION_DOT": 6.63e-06, "MEAN_MOTION_DDOT": 0}, "tle": {"line1": "1 31814U 99025CHC 25328.85411797  .00000663  00000+0  71428-3 0  9993", "line2": "2 31814  99.5736  18.9365 0229144 261.4100  96.1022 13.66443116615553"}}, "geometry": {"type": "Point", "coordinates": [23.867040859693635, 23.820942182920668]}}, {"type": "Feature", "properties": {"norad_id": 31815, "name": "FENGYUN 1C DEB", "group": "fengyun-1c-debris", "lat": -49.67708592215562, "lon": -24.824917134574875, "alt_km": 869.9908448703109, "timestamp": "2025-12-04T03:47:54.827269+00:00", "meta": {"OBJECT_NAME": "FENGYUN 1C DEB", "OBJECT_ID": "1999-025CHD", "EPOCH": "2025-12-03T05:54:03.885120", "MEAN_MOTION": 14.1027738, "ECCENTRICITY": 0.0059653, "INCLINATION": 98.7675, "RA_OF_ASC_NODE": 323.8095, "ARG_OF_PERICENTER": 48.8072, "MEAN_ANOMALY": 311.8221, "EPHEMERIS_TYPE": 0, "CLASSIFICATION_TYPE": "U", "NORAD_CAT_ID": 31815, "ELEMENT_SET_NO": 999, "REV_AT_EPOCH": 95405, "BSTAR": 0.00011622, "MEAN_MOTION_DOT": 1.67e-06, "MEAN_MOTION_DDOT": 0}, "tle": {"line1": "1 31815U 99025CHD 25337.24587830  .00000167  00000+0  11622-3 0  9998", "line2": "2 31815  98.7675 323.8095 0059653  48.8072 311.8221 14.10277380954053"}}, "geometry": {"type": "Point", "coordinates": [-24.824917134574875, -49.67708592215562]}}, {"type": "Feature", "properties": {"norad_id": 31816, "name": "FENGYUN 1C DEB", "group": "fengyun-1c-debris", "lat": 76.74566696049268, "lon": 50.48671451074325, "alt_km": 916.7420874599384, "timestamp": "2025-12-04T03:47:54.827280+00:00", "meta": {"OBJECT_NAME": "FENGYUN 1C DEB", "OBJECT_ID": "1999-025CHE", "EPOCH": "2025-11-23T07:26:54.652128", "MEAN_MOTION": 13.94096492, "ECCENTRICITY": 0.01210461, "INCLINATION": 98.9829, "RA_OF_ASC_NODE": 82.1237, "ARG_OF_PERICENTER": 207.0018, "MEAN_ANOMALY": 180.5984, "EPHEMERIS_TYPE": 0, "CLASSIFICATION_TYPE": "U", "NORAD_CAT_ID": 31816, "ELEMENT_SET_NO": 999, "REV_AT_EPOCH": 93423, "BSTAR": 0.0012545957, "MEAN_MOTION_DOT": 1.723e-05, "MEAN_MOTION_DDOT": 0}, "tle": {"line1": "1 31816U 99025CHE 25327.31035477  .00001723  00000+0  12546-2 0  9995", "line2": "2 31816  98.9829  82.1237 0121046 207.0018 180.5984 13.94096492934234"}}, "geometry": {"type": "Point", "coordinates": [50.48671451074325, 76.74566696049268]}}, {"type": "Feature", "properties": {"norad_id": 31817, "name": "FENGYUN 1C DEB", "group": "fengyun-1c-debris", "lat": -80.4832348066363, "lon": 84.27685056856355, "alt_km": 725.7262998657588, "timestamp": "2025-12-04T03:47:54.827289+00:00", "meta": {"OBJECT_NAME": "FENGYUN 1C DEB", "OBJECT_ID": "1999-025CHF", "EPOCH": "2025-12-02T04:42:22.251168", "MEAN_MOTION": 14.65434221, "ECCENTRICITY": 0.0062808, "INCLINATION": 98.9192, "RA_OF_ASC_NODE": 331.6652, "ARG_OF_PERICENTER": 107.4446, "MEAN_ANOMALY": 253.3634, "EPHEMERIS_TYPE": 0, "CLASSIFICATION_TYPE": "U", "NORAD_CAT_ID": 31817, "ELEMENT_SET_NO": 999, "REV_AT_EPOCH": 71251, "BSTAR": 0.0014364, "MEAN_MOTION_DOT": 7.95e-05, "MEAN_MOTION_DDOT": 0}, "tle": {"line1": "1 31817U 99025CHF 25336.19609087  .00007950  00000+0  14364-2 0  9994", "line2": "2 31817  98.9192 331.6652 0062808 107.4446 253.3634 14.65434221712510"}}, "geometry": {"type": "Point", "coordinates": [84.27685056856355, -80.4832348066363]}}, {"type": "Feature", "properties": {"norad_id": 31819, "name": "FENGYUN 1C DEB", "group": "fengyun-1c-debris", "lat": -23.112366965504425, "lon": 146.04311534750926, "alt_km": 846.3728532700352, "timestamp": "2025-12-04T03:47:54.827299+00:00", "meta": {"OBJECT_NAME": "FENGYUN 1C DEB", "OBJECT_ID": "1999-025CHH", "EPOCH": "2025-12-01T19:26:11.468544", "MEAN_MOTION": 14.30134028, "ECCENTRICITY": 0.00875682, "INCLINATION": 98.4736, "RA_OF_ASC_NODE": 327.4043, "ARG_OF_PERICENTER": 352.8381, "MEAN_ANOMALY": 7.1544, "EPHEMERIS_TYPE": 0, "CLASSIFICATION_TYPE": "U", "NORAD_CAT_ID": 31819, "ELEMENT_SET_NO": 999, "REV_AT_EPOCH": 96537, "BSTAR": 0.00045097789, "MEAN_MOTION_DOT": 1.173e-05, "MEAN_MOTION_DDOT": 0}, "tle": {"line1": "1 31819U 99025CHH 25335.80985496  .00001173  00000+0  45098-3 0  9994", "line2": "2 31819  98.4736 327.4043 0087568 352.8381   7.1544 14.30134028965375"}}, "geometry": {"type": "Point", "coordinates": [146.04311534750926, -23.112366965504425]}}, {"type": "Feature", "properties": {"norad_id": 31820, "name": "FENGYUN 1C DEB", "group": "fengyun-1c-debris", "lat": 4.772660743326798, "lon": 147.16553649182762, "alt_km": 507.1796761908827, "timestamp": "2025-12-04T03:47:54.827309+00:00", "meta": {"OBJECT_NAME": "FENGYUN 1C DEB", "OBJECT_ID": "1999-025CHJ", "EPOCH": "2025-12-02T05:05:48.392160", "MEAN_MOTION": 14.91825704, "ECCENTRICITY": 0.0151194, "INCLINATION": 98.9593, "RA_OF_ASC_NODE": 145.7098, "ARG_OF_PERICENTER": 45.7561, "MEAN_ANOMALY": 315.595, "EPHEMERIS_TYPE": 0, "CLASSIFICATION_TYPE": "U", "NORAD_CAT_ID": 31820, "ELEMENT_SET_NO": 999, "REV_AT_EPOCH": 98099, "BSTAR": 0.0010528, "MEAN_MOTION_DOT": 0.00013194, "MEAN_MOTION_DDOT": 0}, "tle": {"line1": "1 31820U 99025CHJ 25336.21236565  .00013194  00000+0  10528-2 0  9993", "line2": "2 31820  98.9593 145.7098 0151194  45.7561 315.5950 14.91825704980996"}}, "geometry": {"type": "Point", "coordinates": [147.16553649182762, 4.772660743326798]}}]}